GPS BIIR-2  (PRN 13)    
1 24876U 97035A   25014.67676679 -.00000021  00000+0  00000+0 0  9999
2 24876  55.7446 118.8605 0086473  54.6402 306.1585  2.00562330201550
GPS BIIR-4  (PRN 20)    
1 26360U 00025A   25014.78725869 -.00000070  00000+0  00000+0 0  9994
2 26360  54.8287  40.2741 0039676 227.4617 303.1020  2.00563050180875
GPS BIIR-8  (PRN 16)    
1 27663U 03005A   25015.21229453  .00000040  00000+0  00000+0 0  9995
2 27663  55.0233 235.5588 0142973  49.1768  46.4724  2.00562858160922
GPS BIIR-9  (PRN 21)    
1 27704U 03010A   25015.34657479 -.00000104  00000+0  00000+0 0  9996
2 27704  55.0467 345.2205 0260082 333.3554  75.4454  2.00570325159721
GPS BIIR-11 (PRN 19)    
1 28190U 04009A   25012.78258095 -.00000053  00000+0  00000+0 0  9994
2 28190  55.2723 296.6519 0099373 156.0440 138.3324  2.00571749152507
GPS BIIR-13 (PRN 02)    
1 28474U 04045A   25015.39344181 -.00000104  00000+0  00000+0 0  9998
2 28474  55.3769 345.7100 0167230 299.3075 125.9343  2.00563438148041
GPS BIIRM-1 (PRN 17)    
1 28874U 05038A   25015.57971559 -.00000050  00000+0  00000+0 0  9990
2 28874  55.3145 294.0076 0135563 288.4633 252.3590  2.00571049141458
GPS BIIRM-2 (PRN 31)    
1 29486U 06042A   25015.22835931  .00000022  00000+0  00000+0 0  9999
2 29486  54.6812 171.8847 0105392  44.6941 142.3711  2.00570422134000
GPS BIIRM-3 (PRN 12)    
1 29601U 06052A   25013.89598494  .00000056  00000+0  00000+0 0  9997
2 29601  55.0619 234.6047 0087761  84.0011 277.0728  2.00553105132993
GPS BIIRM-4 (PRN 15)    
1 32260U 07047A   25014.20464043 -.00000036  00000+0  00000+0 0  9994
2 32260  53.7283 101.5090 0159072  79.4703 282.3398  2.00554537126402
GPS BIIRM-5 (PRN 29)    
1 32384U 07062A   25015.22767885 -.00000051  00000+0  00000+0 0  9998
2 32384  55.4589 294.9168 0028042 154.9326 351.9427  2.00558586125124
GPS BIIRM-6 (PRN 07)    
1 32711U 08012A   25015.61137550  .00000024  00000+0  00000+0 0  9990
2 32711  54.4574 170.5813 0191813 240.9742 117.0506  2.00553427123375
GPS BIIRM-8 (PRN 05)    
1 35752U 09043A   25014.67968365 -.00000060  00000+0  00000+0 0  9995
2 35752  55.8457  47.8909 0053500  75.3392 343.3561  2.00557011112962
GPS BIIF-1  (PRN 25)    
1 36585U 10022A   25015.22224059  .00000042  00000+0  00000+0 0  9995
2 36585  54.3789 229.4409 0121220  63.1254 145.1997  2.00562268107201
GPS BIIF-3  (PRN 24)    
1 38833U 12053A   25014.79874971  .00000012  00000+0  00000+0 0  9991
2 38833  53.5285 164.8198 0162667  59.4858 302.0606  2.00561212 89046
GPS BIIF-4  (PRN 27)    
1 39166U 13023A   25015.15964517 -.00000042  00000+0  00000+0 0  9990
2 39166  54.9287 290.0213 0130480  45.7560 315.3564  2.00562141 85496
GPS BIIF-5  (PRN 30)    
1 39533U 14008A   25015.15769706  .00000019  00000+0  00000+0 0  9998
2 39533  53.6078 170.4350 0074357 221.0695 138.3268  2.00554272 79290
GPS BIIF-6  (PRN 06)    
1 39741U 14026A   25015.44106570 -.00000102  00000+0  00000+0 0  9999
2 39741  56.6843 351.6396 0036165 316.2059  43.4999  2.00553307 78152
GPS BIIF-7  (PRN 09)    
1 40105U 14045A   25015.52212288 -.00000020  00000+0  00000+0 0  9998
2 40105  55.0333 109.1229 0029549 118.3994 241.9168  2.00550823 75692
GPS BIIF-8  (PRN 03)    
1 40294U 14068A   25015.40026596 -.00000057  00000+0  00000+0 0  9994
2 40294  56.5992  50.9773 0054629  64.2278 296.3991  2.00573393 74825
GPS BIIF-9  (PRN 26)    
1 40534U 15013A   25014.53892662  .00000048  00000+0  00000+0 0  9999
2 40534  53.2771 225.6403 0096885  33.6902 326.9798  2.00552794 71426
GPS BIIF-10 (PRN 08)    
1 40730U 15033A   25015.19839640 -.00000040  00000+0  00000+0 0  9992
2 40730  54.4096 288.3884 0102501  22.1198 338.3718  2.00556092 69600
GPS BIIF-11 (PRN 10)    
1 41019U 15062A   25015.25745890 -.00000057  00000+0  00000+0 0  9993
2 41019  56.5775  50.8383 0102818 227.5908 131.5954  2.00566594 67448
GPS BIIF-12 (PRN 32)    
1 41328U 16007A   25014.84416398 -.00000025  00000+0  00000+0 0  9993
2 41328  55.2213 110.0399 0085155 240.2201 118.9440  2.00551520 65442
GPS BIII-1  (PRN 04)    
1 43873U 18109A   25015.62357704 -.00000017  00000+0  00000+0 0  9998
2 43873  55.3890 112.6305 0032763 194.6920 262.0581  2.00563651 44692
GPS BIII-2  (PRN 18)    
1 44506U 19056A   25015.23803969 -.00000103  00000+0  00000+0 0  9996
2 44506  55.8187 351.6915 0048644 194.7793 247.0628  2.00559458 39684
GPS BIII-3  (PRN 23)    
1 45854U 20041A   25015.24659884 -.00000059  00000+0  00000+0 0  9995
2 45854  56.2977  49.1131 0050635 198.7613 189.6692  2.00569025 33654
GPS BIII-4  (PRN 14)    
1 46826U 20078A   25014.48785862  .00000048  00000+0  00000+0 0  9993
2 46826  54.1057 231.8246 0052525 198.2488 334.7460  2.00559653 31090
GPS BIII-5  (PRN 11)    
1 48859U 21054A   25013.69242448 -.00000103  00000+0  00000+0 0  9999
2 48859  55.3485 353.3064 0019306 231.0114 274.2331  2.00572688 26335
GPS BIII-6  (PRN 28)    
1 55268U 23009A   25012.44501529  .00000028  00000+0  00000+0 0  9998
2 55268  55.0863 168.9634 0001996  70.7349 291.4402  2.00548884 14801
GPS BIII-7  (PRN 01)    
1 62339U 24242A   25015.41840300 -.00000104  00000+0  00000+0 0  9994
2 62339  54.9984 355.1409 0004503 287.1687 146.8892  2.00555297   870
